[{"OBJECT_NAME":"STARLINK-32288","OBJECT_ID":"2024-155V","EPOCH":"2026-03-09T11:14:10.518720","MEAN_MOTION":15.30190541,"ECCENTRICITY":0.00011797,"INCLINATION":53.1616,"RA_OF_ASC_NODE":130.9289,"ARG_OF_PERICENTER":89.7902,"MEAN_ANOMALY":270.3234,"EPHEMERIS_TYPE":0,"CLASSIFICATION_TYPE":"U","NORAD_CAT_ID":60943,"ELEMENT_SET_NO":999,"REV_AT_EPOCH":8625,"BSTAR":1.2141743e-5,"MEAN_MOTION_DOT":0,"MEAN_MOTION_DDOT":0},{"OBJECT_NAME":"GEOSCAN 5 (RS92S5)","OBJECT_ID":"2025-155R","EPOCH":"2026-03-09T22:01:07.273920","MEAN_MOTION":15.30265233,"ECCENTRICITY":0.00070849,"INCLINATION":97.4462,"RA_OF_ASC_NODE":37.7456,"ARG_OF_PERICENTER":154.5846,"MEAN_ANOMALY":205.5745,"EPHEMERIS_TYPE":0,"CLASSIFICATION_TYPE":"U","NORAD_CAT_ID":64891,"ELEMENT_SET_NO":999,"REV_AT_EPOCH":6562,"BSTAR":0.00068639307,"MEAN_MOTION_DOT":0.00020065,"MEAN_MOTION_DDOT":0}]
